*******************************************************************************
Ephemeris / WWW_USER Mon Jul 15 19:01:39 2024 Pasadena, USA      / Horizons    
*******************************************************************************
Target body name: (2018 RC)                       {source: JPL#21}
Center body name: Earth (399)                     {source: DE441}
Center-site name: Gemini South Obs., Cerro Pachon
*******************************************************************************
Start time      : A.D. 2019-Jan-25 23:54:00.0000 UT      
Stop  time      : A.D. 2019-Jan-26 09:56:00.0000 UT      
Step-size       : 1 minutes
*******************************************************************************
Target pole/equ : undefined
Target radii    : undefined                                                    
Center geodetic : 289.2634, -30.2406227, 2.71233  {E-lon(deg),Lat(deg),Alt(km)}
Center cylindric: 289.2634,5517.21435,-3194.81213 {E-lon(deg),Dxy(km),Dz(km)}
Center pole/equ : ITRF93                          {East-longitude positive}
Center radii    : 6378.137, 6378.137, 6356.752 km {Equator_a, b, pole_c}       
Target primary  : Sun
Vis. interferer : MOON (R_eq= 1737.400) km        {source: DE441}
Rel. light bend : Sun                             {source: DE441}
Rel. lght bnd GM: 1.3271E+11 km^3/s^2                                          
Small-body perts: Yes                             {source: SB441-N16}
Atmos refraction: NO (AIRLESS)
RA format       : HMS
Time format     : CAL 
Calendar mode   : Mixed Julian/Gregorian
RTS-only print  : NO       
EOP file        : eop.240715.p241008                                           
EOP coverage    : DATA-BASED 1962-JAN-20 TO 2024-JUL-15. PREDICTS-> 2024-OCT-07
Units conversion: 1 au= 149597870.700 km, c= 299792.458 km/s, 1 day= 86400.0 s 
Table cut-offs 1: Elevation (-90.0deg=NO ),Airmass (>38.000=NO), Daylight (YES)
Table cut-offs 2: Solar elongation (  0.0,180.0=NO ),Local Hour Angle( 0.0=NO )
Table cut-offs 3: RA/DEC angular rate (     0.0=NO )                           
*******************************************************************************
Initial IAU76/J2000 heliocentric ecliptic osculating elements (au, days, deg.):
  EPOCH=  2458369.5 ! 2018-Sep-08.00 (TDB)         Residual RMS= .84866        
   EC= .2426621660028976   QR= .647471518312811    TP= 2458473.8617576878      
   OM= 346.8893436915528   W=  145.8737085184167   IN= 1.612045057594462       
  Equivalent ICRF heliocentric cartesian coordinates (au, au/d):
   X= 9.781363708094483E-01  Y=-2.377942828764822E-01  Z=-1.040448782093900E-01
  VX= 1.501011538102481E-03 VY= 1.393070215815854E-02 VZ= 6.509326736836346E-03
Asteroid physical parameters (km, seconds, rotational period in hours):        
   GM= n.a.                RAD= n.a.               ROTPER= .16548              
   H= 24.93                G= .150                 B-V= n.a.                   
                           ALBEDO= n.a.            STYP= n.a.                  
*******************************************************************************
 Date__(UT)__HR:MN     R.A._________(ICRF)_________DEC
******************************************************
$$SOE
 2019-Jan-26 01:57     17 12 05.529472 -23 35 35.53496
 2019-Jan-26 01:58     17 12 05.706705 -23 35 35.81261
 2019-Jan-26 01:59     17 12 05.883937 -23 35 36.09031
 2019-Jan-26 02:00     17 12 06.061168 -23 35 36.36805
 2019-Jan-26 02:01     17 12 06.238398 -23 35 36.64583
 2019-Jan-26 02:02     17 12 06.415627 -23 35 36.92367
 2019-Jan-26 02:03     17 12 06.592854 -23 35 37.20155
 2019-Jan-26 02:04     17 12 06.770080 -23 35 37.47947
 2019-Jan-26 02:05     17 12 06.947305 -23 35 37.75744
 2019-Jan-26 02:06     17 12 07.124529 -23 35 38.03546
 2019-Jan-26 02:07     17 12 07.301751 -23 35 38.31352
 2019-Jan-26 02:08     17 12 07.478971 -23 35 38.59163
 2019-Jan-26 02:09     17 12 07.656191 -23 35 38.86978
 2019-Jan-26 02:10     17 12 07.833408 -23 35 39.14798
 2019-Jan-26 02:11     17 12 08.010624 -23 35 39.42622
 2019-Jan-26 02:12     17 12 08.187839 -23 35 39.70452
 2019-Jan-26 02:13     17 12 08.365051 -23 35 39.98285
 2019-Jan-26 02:14     17 12 08.542262 -23 35 40.26123
 2019-Jan-26 02:15     17 12 08.719471 -23 35 40.53966
 2019-Jan-26 02:16     17 12 08.896679 -23 35 40.81813
 2019-Jan-26 02:17     17 12 09.073884 -23 35 41.09665
 2019-Jan-26 02:18     17 12 09.251088 -23 35 41.37521
 2019-Jan-26 02:19     17 12 09.428289 -23 35 41.65382
 2019-Jan-26 02:20     17 12 09.605489 -23 35 41.93247
 2019-Jan-26 02:21     17 12 09.782687 -23 35 42.21117
 2019-Jan-26 02:22     17 12 09.959882 -23 35 42.48992
 2019-Jan-26 02:23     17 12 10.137075 -23 35 42.76871
 2019-Jan-26 02:24     17 12 10.314266 -23 35 43.04754
 2019-Jan-26 02:25     17 12 10.491455 -23 35 43.32642
 2019-Jan-26 02:26     17 12 10.668642 -23 35 43.60534
 2019-Jan-26 02:27     17 12 10.845826 -23 35 43.88431
 2019-Jan-26 02:28     17 12 11.023008 -23 35 44.16333
 2019-Jan-26 02:29     17 12 11.200187 -23 35 44.44238
 2019-Jan-26 02:30     17 12 11.377364 -23 35 44.72149
 2019-Jan-26 02:31     17 12 11.554539 -23 35 45.00063
 2019-Jan-26 02:32     17 12 11.731710 -23 35 45.27983
 2019-Jan-26 02:33     17 12 11.908880 -23 35 45.55906
 2019-Jan-26 02:34     17 12 12.086046 -23 35 45.83834
 2019-Jan-26 02:35     17 12 12.263210 -23 35 46.11767
 2019-Jan-26 02:36     17 12 12.440371 -23 35 46.39704
 2019-Jan-26 02:37     17 12 12.617530 -23 35 46.67645
 2019-Jan-26 02:38     17 12 12.794685 -23 35 46.95591
 2019-Jan-26 02:39     17 12 12.971838 -23 35 47.23541
 2019-Jan-26 02:40     17 12 13.148987 -23 35 47.51496
 2019-Jan-26 02:41     17 12 13.326134 -23 35 47.79455
 2019-Jan-26 02:42     17 12 13.503278 -23 35 48.07418
 2019-Jan-26 02:43     17 12 13.680418 -23 35 48.35386
 2019-Jan-26 02:44     17 12 13.857556 -23 35 48.63358
 2019-Jan-26 02:45     17 12 14.034690 -23 35 48.91335
 2019-Jan-26 02:46     17 12 14.211821 -23 35 49.19315
 2019-Jan-26 02:47     17 12 14.388949 -23 35 49.47301
 2019-Jan-26 02:48     17 12 14.566074 -23 35 49.75290
 2019-Jan-26 02:49     17 12 14.743195 -23 35 50.03284
 2019-Jan-26 02:50     17 12 14.920313 -23 35 50.31282
 2019-Jan-26 02:51     17 12 15.097427 -23 35 50.59285
 2019-Jan-26 02:52     17 12 15.274538 -23 35 50.87291
 2019-Jan-26 02:53     17 12 15.451646 -23 35 51.15302
 2019-Jan-26 02:54     17 12 15.628750 -23 35 51.43318
 2019-Jan-26 02:55     17 12 15.805850 -23 35 51.71337
 2019-Jan-26 02:56     17 12 15.982947 -23 35 51.99361
 2019-Jan-26 02:57     17 12 16.160039 -23 35 52.27390
 2019-Jan-26 02:58     17 12 16.337129 -23 35 52.55422
 2019-Jan-26 02:59     17 12 16.514214 -23 35 52.83459
 2019-Jan-26 03:00     17 12 16.691296 -23 35 53.11500
 2019-Jan-26 03:01     17 12 16.868373 -23 35 53.39545
 2019-Jan-26 03:02     17 12 17.045447 -23 35 53.67594
 2019-Jan-26 03:03     17 12 17.222517 -23 35 53.95648
 2019-Jan-26 03:04     17 12 17.399583 -23 35 54.23705
 2019-Jan-26 03:05     17 12 17.576644 -23 35 54.51767
 2019-Jan-26 03:06     17 12 17.753702 -23 35 54.79833
 2019-Jan-26 03:07     17 12 17.930756 -23 35 55.07904
 2019-Jan-26 03:08     17 12 18.107805 -23 35 55.35978
 2019-Jan-26 03:09     17 12 18.284850 -23 35 55.64057
 2019-Jan-26 03:10     17 12 18.461891 -23 35 55.92139
 2019-Jan-26 03:11     17 12 18.638927 -23 35 56.20226
 2019-Jan-26 03:12     17 12 18.815959 -23 35 56.48317
 2019-Jan-26 03:13  m  17 12 18.992987 -23 35 56.76412
 2019-Jan-26 03:14  m  17 12 19.170011 -23 35 57.04511
 2019-Jan-26 03:15  m  17 12 19.347029 -23 35 57.32614
 2019-Jan-26 03:16  m  17 12 19.524044 -23 35 57.60722
 2019-Jan-26 03:17  m  17 12 19.701053 -23 35 57.88833
 2019-Jan-26 03:18  m  17 12 19.878058 -23 35 58.16948
 2019-Jan-26 03:19  m  17 12 20.055059 -23 35 58.45068
 2019-Jan-26 03:20  m  17 12 20.232055 -23 35 58.73191
 2019-Jan-26 03:21  m  17 12 20.409046 -23 35 59.01319
 2019-Jan-26 03:22  m  17 12 20.586032 -23 35 59.29450
 2019-Jan-26 03:23  m  17 12 20.763013 -23 35 59.57586
 2019-Jan-26 03:24  m  17 12 20.939990 -23 35 59.85725
 2019-Jan-26 03:25  m  17 12 21.116961 -23 36 00.13868
 2019-Jan-26 03:26  m  17 12 21.293928 -23 36 00.42016
 2019-Jan-26 03:27  m  17 12 21.470890 -23 36 00.70167
 2019-Jan-26 03:28  m  17 12 21.647846 -23 36 00.98322
 2019-Jan-26 03:29  m  17 12 21.824798 -23 36 01.26481
 2019-Jan-26 03:30  m  17 12 22.001744 -23 36 01.54644
 2019-Jan-26 03:31  m  17 12 22.178686 -23 36 01.82811
 2019-Jan-26 03:32  m  17 12 22.355622 -23 36 02.10982
 2019-Jan-26 03:33  m  17 12 22.532553 -23 36 02.39157
 2019-Jan-26 03:34  m  17 12 22.709478 -23 36 02.67335
 2019-Jan-26 03:35  m  17 12 22.886398 -23 36 02.95517
 2019-Jan-26 03:36  m  17 12 23.063313 -23 36 03.23704
 2019-Jan-26 03:37  m  17 12 23.240223 -23 36 03.51894
 2019-Jan-26 03:38  m  17 12 23.417126 -23 36 03.80087
 2019-Jan-26 03:39  m  17 12 23.594025 -23 36 04.08285
 2019-Jan-26 03:40  m  17 12 23.770918 -23 36 04.36486
 2019-Jan-26 03:41  m  17 12 23.947805 -23 36 04.64691
 2019-Jan-26 03:42  m  17 12 24.124687 -23 36 04.92900
 2019-Jan-26 03:43  m  17 12 24.301563 -23 36 05.21113
 2019-Jan-26 03:44  m  17 12 24.478434 -23 36 05.49329
 2019-Jan-26 03:45  m  17 12 24.655298 -23 36 05.77549
 2019-Jan-26 03:46  m  17 12 24.832157 -23 36 06.05773
 2019-Jan-26 03:47  m  17 12 25.009010 -23 36 06.34000
 2019-Jan-26 03:48  m  17 12 25.185857 -23 36 06.62231
 2019-Jan-26 03:49  m  17 12 25.362699 -23 36 06.90466
 2019-Jan-26 03:50  m  17 12 25.539534 -23 36 07.18704
 2019-Jan-26 03:51  m  17 12 25.716364 -23 36 07.46946
 2019-Jan-26 03:52  m  17 12 25.893187 -23 36 07.75191
 2019-Jan-26 03:53  m  17 12 26.070004 -23 36 08.03441
 2019-Jan-26 03:54  m  17 12 26.246816 -23 36 08.31693
 2019-Jan-26 03:55  m  17 12 26.423621 -23 36 08.59950
 2019-Jan-26 03:56  m  17 12 26.600420 -23 36 08.88209
 2019-Jan-26 03:57  m  17 12 26.777212 -23 36 09.16473
 2019-Jan-26 03:58  m  17 12 26.953999 -23 36 09.44739
 2019-Jan-26 03:59  m  17 12 27.130779 -23 36 09.73010
